{"type": "FeatureCollection", "features": [ {"type": "Feature", "properties": {"norad_id": 66641, "name": "STARLINK-35923", "group": "last-30-days", "lat": 26.489239783967587, "lon": -164.7267656657256, "alt_km": 415.2186049053789, "timestamp": "2025-12-15T14:57:56.621404+00:00", "meta": {"OBJECT_NAME": "STARLINK-35923", "OBJECT_ID": "2025-271AA", "EPOCH": "2025-12-14T20:00:06.000192", "MEAN_MOTION": 15.49273517, "ECCENTRICITY": 0.00010635, "INCLINATION": 53.1595, "RA_OF_ASC_NODE": 177.1129, "ARG_OF_PERICENTER": 86.5601, "MEAN_ANOMALY": 217.7537, "EPHEMERIS_TYPE": 0, "CLASSIFICATION_TYPE": "U", "NORAD_CAT_ID": 66641, "ELEMENT_SET_NO": 999, "REV_AT_EPOCH": 458, "BSTAR": 0.00057634321, "MEAN_MOTION_DOT": 0.00031696, "MEAN_MOTION_DDOT": 0}, "tle": {"line1": "1 66641U 25271AA  25348.83340278  .00031696  00000+0  57634-3 0  9999", "line2": "2 66641  53.1595 177.1129 0001063  86.5601 217.7537 15.49273517  4580"}}, "geometry": {"type": "Point", "coordinates": [-164.7267656657256, 26.489239783967587]}}, {"type": "Feature", "properties": {"norad_id": 66642, "name": "STARLINK-35926", "group": "last-30-days", "lat": 25.083987258028355, "lon": -166.11625478222246, "alt_km": 415.45782070020414, "timestamp": "2025-12-15T14:57:56.621413+00:00", "meta": {"OBJECT_NAME": "STARLINK-35926", "OBJECT_ID": "2025-271AB", "EPOCH": "2025-12-14T20:00:06.000192", "MEAN_MOTION": 15.49286374, "ECCENTRICITY": 6.48e-05, "INCLINATION": 53.1594, "RA_OF_ASC_NODE": 177.1178, "ARG_OF_PERICENTER": 68.5441, "MEAN_ANOMALY": 233.8354, "EPHEMERIS_TYPE": 0, "CLASSIFICATION_TYPE": "U", "NORAD_CAT_ID": 66642, "ELEMENT_SET_NO": 999, "REV_AT_EPOCH": 434, "BSTAR": 0.00065501971, "MEAN_MOTION_DOT": 0.00036121, "MEAN_MOTION_DDOT": 0}, "tle": {"line1": "1 66642U 25271AB  25348.83340278  .00036121  00000+0  65502-3 0  9991", "line2": "2 66642  53.1594 177.1178 0000648  68.5441 233.8354 15.49286374  4349"}}, "geometry": {"type": "Point", "coordinates": [-166.11625478222246, 25.083987258028355]}}, {"type": "Feature", "properties": {"norad_id": 66643, "name": "STARLINK-35918", "group": "last-30-days", "lat": 22.180140246090733, "lon": -168.85550879094944, "alt_km": 415.71966255691586, "timestamp": "2025-12-15T14:57:56.621423+00:00", "meta": {"OBJECT_NAME": "STARLINK-35918", "OBJECT_ID": "2025-271AC", "EPOCH": "2025-12-14T20:00:06.000192", "MEAN_MOTION": 15.49285676, "ECCENTRICITY": 0.00011714, "INCLINATION": 53.1596, "RA_OF_ASC_NODE": 177.1261, "ARG_OF_PERICENTER": 72.1266, "MEAN_ANOMALY": 226.4201, "EPHEMERIS_TYPE": 0, "CLASSIFICATION_TYPE": "U", "NORAD_CAT_ID": 66643, "ELEMENT_SET_NO": 999, "REV_AT_EPOCH": 458, "BSTAR": 0.00066233635, "MEAN_MOTION_DOT": 0.0003653, "MEAN_MOTION_DDOT": 0}, "tle": {"line1": "1 66643U 25271AC  25348.83340278  .00036530  00000+0  66234-3 0  9999", "line2": "2 66643  53.1596 177.1261 0001171  72.1266 226.4201 15.49285676  4582"}}, "geometry": {"type": "Point", "coordinates": [-168.85550879094944, 22.180140246090733]}}, {"type": "Feature", "properties": {"norad_id": 66644, "name": "STARLINK-35938", "group": "last-30-days", "lat": 23.61129378666596, "lon": -167.52627860864575, "alt_km": 415.7650082790633, "timestamp": "2025-12-15T14:57:56.621432+00:00", "meta": {"OBJECT_NAME": "STARLINK-35938", "OBJECT_ID": "2025-271AD", "EPOCH": "2025-12-14T20:00:06.000192", "MEAN_MOTION": 15.49280494, "ECCENTRICITY": 7.153e-05, "INCLINATION": 53.1595, "RA_OF_ASC_NODE": 177.1221, "ARG_OF_PERICENTER": 78.0011, "MEAN_ANOMALY": 222.4519, "EPHEMERIS_TYPE": 0, "CLASSIFICATION_TYPE": "U", "NORAD_CAT_ID": 66644, "ELEMENT_SET_NO": 999, "REV_AT_EPOCH": 458, "BSTAR": 0.00057549083, "MEAN_MOTION_DOT": 0.00031656, "MEAN_MOTION_DDOT": 0}, "tle": {"line1": "1 66644U 25271AD  25348.83340278  .00031656  00000+0  57549-3 0  9993", "line2": "2 66644  53.1595 177.1221 0000715  78.0011 222.4519 15.49280494  4585"}}, "geometry": {"type": "Point", "coordinates": [-167.52627860864575, 23.61129378666596]}}, {"type": "Feature", "properties": {"norad_id": 66645, "name": "SHENZHOU-22", "group": "last-30-days", "lat": 19.28795066141655, "lon": 155.85115613987654, "alt_km": 386.9562072665867, "timestamp": "2025-12-15T14:57:56.621443+00:00", "meta": {"OBJECT_NAME": "SHENZHOU-22", "OBJECT_ID": "2025-272A", "EPOCH": "2025-12-14T18:20:35.966688", "MEAN_MOTION": 15.59276671, "ECCENTRICITY": 0.00079692, "INCLINATION": 41.4686, "RA_OF_ASC_NODE": 4.4163, "ARG_OF_PERICENTER": 47.9044, "MEAN_ANOMALY": 312.2471, "EPHEMERIS_TYPE": 0, "CLASSIFICATION_TYPE": "U", "NORAD_CAT_ID": 66645, "ELEMENT_SET_NO": 999, "REV_AT_EPOCH": 26357, "BSTAR": 0.0002758625, "MEAN_MOTION_DOT": 0.00022075, "MEAN_MOTION_DDOT": 0}, "tle": {"line1": "1 66645U 25272A   25348.76430517  .00022075  00000+0  27586-3 0  9996", "line2": "2 66645  41.4686   4.4163 0007969  47.9044 312.2471 15.59276671263577"}}, "geometry": {"type": "Point", "coordinates": [155.85115613987654, 19.28795066141655]}}, {"type": "Feature", "properties": {"norad_id": 66647, "name": "COSMOS 2597 (RODNIK-S 22)", "group": "last-30-days", "lat": 35.985516746834456, "lon": -69.85206407295918, "alt_km": 1498.3344436138805, "timestamp": "2025-12-15T14:57:56.621452+00:00", "meta": {"OBJECT_NAME": "COSMOS 2597 (RODNIK-S 22)", "OBJECT_ID": "2025-273A", "EPOCH": "2025-12-14T21:22:12.657792", "MEAN_MOTION": 12.4195188, "ECCENTRICITY": 0.00077075, "INCLINATION": 82.4989, "RA_OF_ASC_NODE": 285.1134, "ARG_OF_PERICENTER": 282.0467, "MEAN_ANOMALY": 77.9748, "EPHEMERIS_TYPE": 0, "CLASSIFICATION_TYPE": "U", "NORAD_CAT_ID": 66647, "ELEMENT_SET_NO": 999, "REV_AT_EPOCH": 240, "BSTAR": 0.00023635046, "MEAN_MOTION_DOT": 4.2e-07, "MEAN_MOTION_DDOT": 0}, "tle": {"line1": "1 66647U 25273A   25348.89042428  .00000042  00000+0  23635-3 0  9994", "line2": "2 66647  82.4989 285.1134 0007707 282.0467  77.9748 12.41951880  2402"}}, "geometry": {"type": "Point", "coordinates": [-69.85206407295918, 35.985516746834456]}}, {"type": "Feature", "properties": {"norad_id": 66648, "name": "COSMOS 2598 (RODNIK-S 23)", "group": "last-30-days", "lat": 81.14876760575896, "lon": -17.613281945356256, "alt_km": 1490.6518409187347, "timestamp": "2025-12-15T14:57:56.621462+00:00", "meta": {"OBJECT_NAME": "COSMOS 2598 (RODNIK-S 23)", "OBJECT_ID": "2025-273B", "EPOCH": "2025-12-14T23:03:24.822144", "MEAN_MOTION": 12.43233467, "ECCENTRICITY": 0.000799, "INCLINATION": 82.5028, "RA_OF_ASC_NODE": 285.0676, "ARG_OF_PERICENTER": 231.6416, "MEAN_ANOMALY": 128.3947, "EPHEMERIS_TYPE": 0, "CLASSIFICATION_TYPE": "U", "NORAD_CAT_ID": 66648, "ELEMENT_SET_NO": 999, "REV_AT_EPOCH": 241, "BSTAR": -2.2584687e-05, "MEAN_MOTION_DOT": 7e-08, "MEAN_MOTION_DDOT": 0}, "tle": {"line1": "1 66648U 25273B   25348.96070396  .00000007  00000+0 -22585-4 0  9994", "line2": "2 66648  82.5028 285.0676 0007990 231.6416 128.3947 12.43233467  2415"}}, "geometry": {"type": "Point", "coordinates": [-17.613281945356256, 81.14876760575896]}}, {"type": "Feature", "properties": {"norad_id": 66649, "name": "COSMOS 2599 (RODNIK-S 24)", "group": "last-30-days", "lat": 9.285365204963956, "lon": -74.08665626504146, "alt_km": 1503.7987697887966, "timestamp": "2025-12-15T14:57:56.621471+00:00", "meta": {"OBJECT_NAME": "COSMOS 2599 (RODNIK-S 24)", "OBJECT_ID": "2025-273C", "EPOCH": "2025-12-14T21:30:13.445280", "MEAN_MOTION": 12.4115097, "ECCENTRICITY": 0.00063015, "INCLINATION": 82.5045, "RA_OF_ASC_NODE": 285.1307, "ARG_OF_PERICENTER": 273.4568, "MEAN_ANOMALY": 86.579, "EPHEMERIS_TYPE": 0, "CLASSIFICATION_TYPE": "U", "NORAD_CAT_ID": 66649, "ELEMENT_SET_NO": 999, "REV_AT_EPOCH": 240, "BSTAR": -2.6001056e-05, "MEAN_MOTION_DOT": 6e-08, "MEAN_MOTION_DDOT": 0}, "tle": {"line1": "1 66649U 25273C   25348.89598895  .00000006  00000+0 -26001-4 0  9992", "line2": "2 66649  82.5045 285.1307 0006301 273.4568  86.5790 12.41150970  2409"}}, "geometry": {"type": "Point", "coordinates": [-74.08665626504146, 9.285365204963956]}}, {"type": "Feature", "properties": {"norad_id": 66650, "name": "BEE-1000", "group": "last-30-days", "lat": -69.94224144353129, "lon": -61.374631683631215, "alt_km": 595.090326242288, "timestamp": "2025-12-15T14:57:56.621481+00:00", "meta": {"OBJECT_NAME": "BEE-1000", "OBJECT_ID": "2025-274A", "EPOCH": "2025-12-14T08:41:48.809472", "MEAN_MOTION": 14.91671044, "ECCENTRICITY": 0.00104078, "INCLINATION": 97.7389, "RA_OF_ASC_NODE": 275.5202, "ARG_OF_PERICENTER": 245.2724, "MEAN_ANOMALY": 114.7411, "EPHEMERIS_TYPE": 0, "CLASSIFICATION_TYPE": "U", "NORAD_CAT_ID": 66650, "ELEMENT_SET_NO": 999, "REV_AT_EPOCH": 264, "BSTAR": 0.00024159116, "MEAN_MOTION_DOT": 2.375e-05, "MEAN_MOTION_DDOT": 0}, "tle": {"line1": "1 66650U 25274A   25348.36237048  .00002375  00000+0  24159-3 0  9998", "line2": "2 66650  97.7389 275.5202 0010407 245.2724 114.7411 14.91671044  2647"}}, "geometry": {"type": "Point", "coordinates": [-61.374631683631215, -69.94224144353129]}}, {"type": "Feature", "properties": {"norad_id": 66651, "name": "2025-274B", "group": "last-30-days", "lat": -63.87982346950395, "lon": -67.13915683402054, "alt_km": 595.2407635946047, "timestamp": "2025-12-15T14:57:56.621490+00:00", "meta": {"OBJECT_NAME": "2025-274B", "OBJECT_ID": "2025-274B", "EPOCH": "2025-12-14T18:19:46.496640", "MEAN_MOTION": 14.91819196, "ECCENTRICITY": 0.00106352, "INCLINATION": 97.7387, "RA_OF_ASC_NODE": 275.9156, "ARG_OF_PERICENTER": 242.5897, "MEAN_ANOMALY": 117.424, "EPHEMERIS_TYPE": 0, "CLASSIFICATION_TYPE": "U", "NORAD_CAT_ID": 66651, "ELEMENT_SET_NO": 999, "REV_AT_EPOCH": 270, "BSTAR": 0.00037284595, "MEAN_MOTION_DOT": 3.71e-05, "MEAN_MOTION_DDOT": 0}, "tle": {"line1": "1 66651U 25274B   25348.76373260  .00003710  00000+0  37285-3 0  9998", "line2": "2 66651  97.7387 275.9156 0010635 242.5897 117.4240 14.91819196  2701"}}, "geometry": {"type": "Point", "coordinates": [-67.13915683402054, -63.87982346950395]}}]}